[{"OBJECT_NAME":"ONEWEB-0531","OBJECT_ID":"2022-138AK","EPOCH":"2025-07-30T20:55:58.410912","MEAN_MOTION":13.20771574,"ECCENTRICITY":0.000101,"INCLINATION":87.9289,"RA_OF_ASC_NODE":338.4552,"ARG_OF_PERICENTER":109.4084,"MEAN_ANOMALY":250.7158,"EPHEMERIS_TYPE":0,"CLASSIFICATION_TYPE":"U","NORAD_CAT_ID":54146,"ELEMENT_SET_NO":999,"REV_AT_EPOCH":13689,"BSTAR":-0.00014514,"MEAN_MOTION_DOT":-4.6e-7,"MEAN_MOTION_DDOT":0},{"OBJECT_NAME":"ONEWEB-0535","OBJECT_ID":"2022-138AL","EPOCH":"2025-07-30T22:03:53.847072","MEAN_MOTION":13.19725442,"ECCENTRICITY":0.0001567,"INCLINATION":87.9233,"RA_OF_ASC_NODE":8.8037,"ARG_OF_PERICENTER":103.5164,"MEAN_ANOMALY":256.6144,"EPHEMERIS_TYPE":0,"CLASSIFICATION_TYPE":"U","NORAD_CAT_ID":54147,"ELEMENT_SET_NO":999,"REV_AT_EPOCH":13446,"BSTAR":8.8592e-5,"MEAN_MOTION_DOT":4.8e-7,"MEAN_MOTION_DDOT":0},{"OBJECT_NAME":"ONEWEB-0536","OBJECT_ID":"2022-138AM","EPOCH":"2025-07-30T20:37:46.608672","MEAN_MOTION":13.20770972,"ECCENTRICITY":8.11e-5,"INCLINATION":87.9289,"RA_OF_ASC_NODE":338.5033,"ARG_OF_PERICENTER":99.8256,"MEAN_ANOMALY":260.2969,"EPHEMERIS_TYPE":0,"CLASSIFICATION_TYPE":"U","NORAD_CAT_ID":54148,"ELEMENT_SET_NO":999,"REV_AT_EPOCH":13688,"BSTAR":-4.4835e-5,"MEAN_MOTION_DOT":-5.0e-8,"MEAN_MOTION_DDOT":0},{"OBJECT_NAME":"ONEWEB-0527","OBJECT_ID":"2022-166A","EPOCH":"2025-07-30T18:20:49.258464","MEAN_MOTION":13.21827086,"ECCENTRICITY":0.000193,"INCLINATION":87.9272,"RA_OF_ASC_NODE":308.1274,"ARG_OF_PERICENTER":97.6117,"MEAN_ANOMALY":262.5236,"EPHEMERIS_TYPE":0,"CLASSIFICATION_TYPE":"U","NORAD_CAT_ID":54642,"ELEMENT_SET_NO":999,"REV_AT_EPOCH":12907,"BSTAR":0.0001374,"MEAN_MOTION_DOT":7.0e-7,"MEAN_MOTION_DDOT":0},{"OBJECT_NAME":"ONEWEB-0528","OBJECT_ID":"2022-166B","EPOCH":"2025-07-30T18:29:54.702528","MEAN_MOTION":13.21826435,"ECCENTRICITY":0.0001998,"INCLINATION":87.9276,"RA_OF_ASC_NODE":308.1273,"ARG_OF_PERICENTER":95.9744,"MEAN_ANOMALY":264.1617,"EPHEMERIS_TYPE":0,"CLASSIFICATION_TYPE":"U","NORAD_CAT_ID":54643,"ELEMENT_SET_NO":999,"REV_AT_EPOCH":12908,"BSTAR":0.00019915,"MEAN_MOTION_DOT":9.5e-7,"MEAN_MOTION_DDOT":0},{"OBJECT_NAME":"ONEWEB-0539","OBJECT_ID":"2022-166C","EPOCH":"2025-07-30T19:22:06.370752","MEAN_MOTION":13.2183501,"ECCENTRICITY":0.0002333,"INCLINATION":87.9265,"RA_OF_ASC_NODE":308.093,"ARG_OF_PERICENTER":100.88,"MEAN_ANOMALY":259.2597,"EPHEMERIS_TYPE":0,"CLASSIFICATION_TYPE":"U","NORAD_CAT_ID":54644,"ELEMENT_SET_NO":999,"REV_AT_EPOCH":12908,"BSTAR":-0.0059113,"MEAN_MOTION_DOT":-2.428e-5,"MEAN_MOTION_DDOT":0},{"OBJECT_NAME":"ONEWEB-0540","OBJECT_ID":"2022-166D","EPOCH":"2025-07-30T17:42:25.430112","MEAN_MOTION":13.21826236,"ECCENTRICITY":0.0002141,"INCLINATION":87.9272,"RA_OF_ASC_NODE":308.14,"ARG_OF_PERICENTER":102.989,"MEAN_ANOMALY":257.1483,"EPHEMERIS_TYPE":0,"CLASSIFICATION_TYPE":"U","NORAD_CAT_ID":54645,"ELEMENT_SET_NO":999,"REV_AT_EPOCH":12906,"BSTAR":2.4753e-5,"MEAN_MOTION_DOT":2.3e-7,"MEAN_MOTION_DDOT":0},{"OBJECT_NAME":"ONEWEB-0542","OBJECT_ID":"2022-166E","EPOCH":"2025-07-30T19:35:46.133088","MEAN_MOTION":13.2182597,"ECCENTRICITY":0.0002162,"INCLINATION":87.9263,"RA_OF_ASC_NODE":308.088,"ARG_OF_PERICENTER":109.0403,"MEAN_ANOMALY":251.0966,"EPHEMERIS_TYPE":0,"CLASSIFICATION_TYPE":"U","NORAD_CAT_ID":54646,"ELEMENT_SET_NO":999,"REV_AT_EPOCH":12908,"BSTAR":0.00024648,"MEAN_MOTION_DOT":1.15e-6,"MEAN_MOTION_DDOT":0},{"OBJECT_NAME":"ONEWEB-0545","OBJECT_ID":"2022-166F","EPOCH":"2025-07-30T18:48:04.809600","MEAN_MOTION":13.2182624,"ECCENTRICITY":0.000243,"INCLINATION":87.9273,"RA_OF_ASC_NODE":308.1109,"ARG_OF_PERICENTER":107.5981,"MEAN_ANOMALY":252.5418,"EPHEMERIS_TYPE":0,"CLASSIFICATION_TYPE":"U","NORAD_CAT_ID":54647,"ELEMENT_SET_NO":999,"REV_AT_EPOCH":12904,"BSTAR":-8.0587e-5,"MEAN_MOTION_DOT":-2.0e-7,"MEAN_MOTION_DDOT":0},{"OBJECT_NAME":"ONEWEB-0580","OBJECT_ID":"2022-166G","EPOCH":"2025-07-30T18:09:28.409184","MEAN_MOTION":13.21825542,"ECCENTRICITY":0.0002117,"INCLINATION":87.9272,"RA_OF_ASC_NODE":308.1139,"ARG_OF_PERICENTER":109.9597,"MEAN_ANOMALY":250.1765,"EPHEMERIS_TYPE":0,"CLASSIFICATION_TYPE":"U","NORAD_CAT_ID":54648,"ELEMENT_SET_NO":999,"REV_AT_EPOCH":12908,"BSTAR":-1.8999e-5,"MEAN_MOTION_DOT":5.0e-8,"MEAN_MOTION_DDOT":0},{"OBJECT_NAME":"ONEWEB-0582","OBJECT_ID":"2022-166H","EPOCH":"2025-07-30T19:10:46.589376","MEAN_MOTION":13.21825314,"ECCENTRICITY":0.0002206,"INCLINATION":87.9264,"RA_OF_ASC_NODE":308.1033,"ARG_OF_PERICENTER":112.9738,"MEAN_ANOMALY":247.1629,"EPHEMERIS_TYPE":0,"CLASSIFICATION_TYPE":"U","NORAD_CAT_ID":54649,"ELEMENT_SET_NO":999,"REV_AT_EPOCH":12906,"BSTAR":-8.4981e-5,"MEAN_MOTION_DOT":-2.2e-7,"MEAN_MOTION_DDOT":0},{"OBJECT_NAME":"ONEWEB-0583","OBJECT_ID":"2022-166J","EPOCH":"2025-07-30T19:26:41.536608","MEAN_MOTION":13.21825036,"ECCENTRICITY":0.0002114,"INCLINATION":87.9271,"RA_OF_ASC_NODE":308.1225,"ARG_OF_PERICENTER":101.253,"MEAN_ANOMALY":258.8841,"EPHEMERIS_TYPE":0,"CLASSIFICATION_TYPE":"U","NORAD_CAT_ID":54650,"ELEMENT_SET_NO":999,"REV_AT_EPOCH":12907,"BSTAR":-0.00014421,"MEAN_MOTION_DOT":-4.7e-7,"MEAN_MOTION_DDOT":0},{"OBJECT_NAME":"ONEWEB-0584","OBJECT_ID":"2022-166K","EPOCH":"2025-07-30T19:56:12.143904","MEAN_MOTION":13.2182561,"ECCENTRICITY":0.0002058,"INCLINATION":87.9272,"RA_OF_ASC_NODE":308.1026,"ARG_OF_PERICENTER":111.7667,"MEAN_ANOMALY":248.3686,"EPHEMERIS_TYPE":0,"CLASSIFICATION_TYPE":"U","NORAD_CAT_ID":54651,"ELEMENT_SET_NO":999,"REV_AT_EPOCH":12906,"BSTAR":0.00021931,"MEAN_MOTION_DOT":1.04e-6,"MEAN_MOTION_DDOT":0},{"OBJECT_NAME":"ONEWEB-0585","OBJECT_ID":"2022-166L","EPOCH":"2025-07-30T18:43:30.896544","MEAN_MOTION":13.21827987,"ECCENTRICITY":0.0001892,"INCLINATION":87.9272,"RA_OF_ASC_NODE":308.0987,"ARG_OF_PERICENTER":96.6731,"MEAN_ANOMALY":263.4618,"EPHEMERIS_TYPE":0,"CLASSIFICATION_TYPE":"U","NORAD_CAT_ID":54652,"ELEMENT_SET_NO":999,"REV_AT_EPOCH":12906,"BSTAR":0.00010365,"MEAN_MOTION_DOT":5.6e-7,"MEAN_MOTION_DDOT":0},{"OBJECT_NAME":"ONEWEB-0586","OBJECT_ID":"2022-166M","EPOCH":"2025-07-30T19:01:42.381696","MEAN_MOTION":13.21825253,"ECCENTRICITY":0.0002105,"INCLINATION":87.9273,"RA_OF_ASC_NODE":308.1201,"ARG_OF_PERICENTER":103.8906,"MEAN_ANOMALY":256.2462,"EPHEMERIS_TYPE":0,"CLASSIFICATION_TYPE":"U","NORAD_CAT_ID":54653,"ELEMENT_SET_NO":999,"REV_AT_EPOCH":12906,"BSTAR":-4.0592e-5,"MEAN_MOTION_DOT":-4.0e-8,"MEAN_MOTION_DDOT":0},{"OBJECT_NAME":"ONEWEB-0587","OBJECT_ID":"2022-166N","EPOCH":"2025-07-30T19:15:18.619776","MEAN_MOTION":13.21827232,"ECCENTRICITY":0.0001848,"INCLINATION":87.9272,"RA_OF_ASC_NODE":308.0663,"ARG_OF_PERICENTER":94.0925,"MEAN_ANOMALY":266.042,"EPHEMERIS_TYPE":0,"CLASSIFICATION_TYPE":"U","NORAD_CAT_ID":54654,"ELEMENT_SET_NO":999,"REV_AT_EPOCH":12922,"BSTAR":-0.00012812,"MEAN_MOTION_DOT":-4.0e-7,"MEAN_MOTION_DDOT":0},{"OBJECT_NAME":"ONEWEB-0589","OBJECT_ID":"2022-166P","EPOCH":"2025-07-30T18:57:09.471744","MEAN_MOTION":13.2182551,"ECCENTRICITY":0.0002301,"INCLINATION":87.9273,"RA_OF_ASC_NODE":308.113,"ARG_OF_PERICENTER":121.7352,"MEAN_ANOMALY":238.4007,"EPHEMERIS_TYPE":0,"CLASSIFICATION_TYPE":"U","NORAD_CAT_ID":54655,"ELEMENT_SET_NO":999,"REV_AT_EPOCH":12908,"BSTAR":-0.00015766,"MEAN_MOTION_DOT":-5.2e-7,"MEAN_MOTION_DDOT":0},{"OBJECT_NAME":"ONEWEB-0590","OBJECT_ID":"2022-166Q","EPOCH":"2025-07-30T19:30:59.836320","MEAN_MOTION":13.21827364,"ECCENTRICITY":0.0001543,"INCLINATION":87.9269,"RA_OF_ASC_NODE":308.0861,"ARG_OF_PERICENTER":105.7518,"MEAN_ANOMALY":254.3787,"EPHEMERIS_TYPE":0,"CLASSIFICATION_TYPE":"U","NORAD_CAT_ID":54656,"ELEMENT_SET_NO":999,"REV_AT_EPOCH":12907,"BSTAR":-1.6691e-5,"MEAN_MOTION_DOT":6.0e-8,"MEAN_MOTION_DDOT":0},{"OBJECT_NAME":"ONEWEB-0591","OBJECT_ID":"2022-166R","EPOCH":"2025-07-30T19:49:23.216160","MEAN_MOTION":13.21825389,"ECCENTRICITY":0.0001998,"INCLINATION":87.927,"RA_OF_ASC_NODE":308.1066,"ARG_OF_PERICENTER":104.2843,"MEAN_ANOMALY":255.8513,"EPHEMERIS_TYPE":0,"CLASSIFICATION_TYPE":"U","NORAD_CAT_ID":54657,"ELEMENT_SET_NO":999,"REV_AT_EPOCH":12910,"BSTAR":-4.0465e-5,"MEAN_MOTION_DOT":-4.0e-8,"MEAN_MOTION_DDOT":0},{"OBJECT_NAME":"ONEWEB-0592","OBJECT_ID":"2022-166S","EPOCH":"2025-07-30T19:53:55.844448","MEAN_MOTION":13.21825531,"ECCENTRICITY":0.0001941,"INCLINATION":87.9277,"RA_OF_ASC_NODE":308.0575,"ARG_OF_PERICENTER":104.4337,"MEAN_ANOMALY":255.7012,"EPHEMERIS_TYPE":0,"CLASSIFICATION_TYPE":"U","NORAD_CAT_ID":54658,"ELEMENT_SET_NO":999,"REV_AT_EPOCH":12898,"BSTAR":0.00012175,"MEAN_MOTION_DOT":6.3e-7,"MEAN_MOTION_DDOT":0},{"OBJECT_NAME":"ONEWEB-0593","OBJECT_ID":"2022-166T","EPOCH":"2025-07-30T18:38:59.508096","MEAN_MOTION":13.21825628,"ECCENTRICITY":0.0002034,"INCLINATION":87.9272,"RA_OF_ASC_NODE":308.1063,"ARG_OF_PERICENTER":104.957,"MEAN_ANOMALY":255.1789,"EPHEMERIS_TYPE":0,"CLASSIFICATION_TYPE":"U","NORAD_CAT_ID":54659,"ELEMENT_SET_NO":999,"REV_AT_EPOCH":12908,"BSTAR":7.962e-5,"MEAN_MOTION_DOT":4.6e-7,"MEAN_MOTION_DDOT":0},{"OBJECT_NAME":"ONEWEB-0594","OBJECT_ID":"2022-166U","EPOCH":"2025-07-30T19:06:14.387040","MEAN_MOTION":13.21825101,"ECCENTRICITY":0.0002032,"INCLINATION":87.9274,"RA_OF_ASC_NODE":308.1176,"ARG_OF_PERICENTER":98.1108,"MEAN_ANOMALY":262.0257,"EPHEMERIS_TYPE":0,"CLASSIFICATION_TYPE":"U","NORAD_CAT_ID":54660,"ELEMENT_SET_NO":999,"REV_AT_EPOCH":12910,"BSTAR":-0.00025316,"MEAN_MOTION_DOT":-9.2e-7,"MEAN_MOTION_DDOT":0},{"OBJECT_NAME":"ONEWEB-0595","OBJECT_ID":"2022-166V","EPOCH":"2025-07-30T18:34:26.618880","MEAN_MOTION":13.21826067,"ECCENTRICITY":0.0001837,"INCLINATION":87.9272,"RA_OF_ASC_NODE":308.0983,"ARG_OF_PERICENTER":95.1857,"MEAN_ANOMALY":264.9486,"EPHEMERIS_TYPE":0,"CLASSIFICATION_TYPE":"U","NORAD_CAT_ID":54661,"ELEMENT_SET_NO":999,"REV_AT_EPOCH":12907,"BSTAR":0.00013984,"MEAN_MOTION_DOT":7.1e-7,"MEAN_MOTION_DDOT":0},{"OBJECT_NAME":"ONEWEB-0596","OBJECT_ID":"2022-166W","EPOCH":"2025-07-30T19:44:50.460000","MEAN_MOTION":13.21825477,"ECCENTRICITY":0.0001899,"INCLINATION":87.9273,"RA_OF_ASC_NODE":308.1031,"ARG_OF_PERICENTER":100.5708,"MEAN_ANOMALY":259.564,"EPHEMERIS_TYPE":0,"CLASSIFICATION_TYPE":"U","NORAD_CAT_ID":54662,"ELEMENT_SET_NO":999,"REV_AT_EPOCH":12908,"BSTAR":2.7761e-5,"MEAN_MOTION_DOT":2.4e-7,"MEAN_MOTION_DDOT":0}]
